NORAD_CAT_ID,OBJECT_NAME,OBJECT_TYPE,EPOCH,MEAN_MOTION,ECCENTRICITY,INCLINATION,RA_OF_ASC_NODE,ARG_OF_PERICENTER,MEAN_ANOMALY,BSTAR,MEAN_MOTION_DOT,MEAN_MOTION_DDOT,TLE_LINE0,TLE_LINE1,TLE_LINE2,SEMIMAJOR_AXIS,PERIOD,APOGEE,PERIGEE,DECAYED
51872.0,STARLINK-3554,PAYLOAD,2023-09-05 04:34:08,15.08838919,0.0001408,53.2177,163.4472,95.4108,264.7045,5.5812e-05,6e-06,0.0,0 STARLINK-3554,1 51872U 22022W   23248.19037438  .00000600  00000-0  55812-4 0  9996,2 51872  53.2177 163.4472 0001408  95.4108 264.7045 15.08838919 84751,6917.884,95.438,540.723,538.775,0.0
51872.0,STARLINK-3554,PAYLOAD,2023-09-06 02:49:32,15.08836381,0.0001282,53.2168,159.2843,96.4456,263.6682,0.00010021,1.307e-05,0.0,0 STARLINK-3554,1 51872U 22022W   23249.11773716  .00001307  00000-0  10021-3 0  9992,2 51872  53.2168 159.2843 0001282  96.4456 263.6682 15.08836381 84894,6917.891,95.438,540.643,538.87,0.0
51872.0,STARLINK-3554,PAYLOAD,2023-09-07 04:15:42,15.08833458,0.0001333,53.217,154.5264,93.1118,267.0026,0.00013869,1.92e-05,0.0,0 STARLINK-3554,1 51872U 22022W   23250.17757960  .00001920  00000-0  13869-3 0  9997,2 51872  53.2170 154.5264 0001333  93.1118 267.0026 15.08833458 85059,6917.9,95.438,540.688,538.843,0.0
51872.0,STARLINK-3554,PAYLOAD,2023-09-08 02:31:06,15.08839544,0.0001468,53.2167,150.3637,84.2826,275.8333,4.1273e-05,3.69e-06,0.0,0 STARLINK-3554,1 51872U 22022W   23251.10493948  .00000369  00000-0  41273-4 0  9991,2 51872  53.2167 150.3637 0001468  84.2826 275.8333 15.08839544 85194,6917.882,95.438,540.762,538.731,0.0
51872.0,STARLINK-3554,PAYLOAD,2023-09-09 02:21:53,15.08842345,0.0001332,53.2166,145.9029,91.1711,268.9433,7.2546e-05,8.67e-06,0.0,0 STARLINK-3554,1 51872U 22022W   23252.09853681  .00000867  00000-0  72546-4 0  9994,2 51872  53.2166 145.9029 0001332  91.1711 268.9433 15.08842345 85342,6917.873,95.437,540.66,538.817,0.0
51872.0,STARLINK-3554,PAYLOAD,2023-09-09 10:18:49,15.0883722,0.000137,53.2178,144.4153,86.3224,273.7924,2.6743e-05,1.38e-06,0.0,0 STARLINK-3554,1 51872U 22022W   23252.42974184  .00000138  00000-0  26743-4 0  9992,2 51872  53.2178 144.4153 0001370  86.3224 273.7924 15.08837220 85394,6917.889,95.438,540.702,538.806,0.0
51872.0,STARLINK-3554,PAYLOAD,2023-09-10 02:12:40,15.08840376,0.0001329,53.2163,141.4424,90.6553,269.4591,6.3738e-05,7.27e-06,0.0,0 STARLINK-3554,1 51872U 22022W   23253.09213953  .00000727  00000-0  63738-4 0  9995,2 51872  53.2163 141.4424 0001329  90.6553 269.4591 15.08840376 85492,6917.879,95.438,540.664,538.825,0.0
51872.0,STARLINK-3554,PAYLOAD,2023-09-11 02:03:28,15.08842332,0.0001379,53.2168,136.9807,96.272,263.8429,9.4292e-06,-1.38e-06,0.0,0 STARLINK-3554,1 51872U 22022W   23254.08574157 -.00000138  00000-0  94292-5 0  9998,2 51872  53.2168 136.9807 0001379  96.2720 263.8429 15.08842332 85643,6917.873,95.437,540.692,538.784,0.0
51872.0,STARLINK-3554,PAYLOAD,2023-09-12 01:54:14,15.08848421,0.0001229,53.2158,132.521,87.0145,273.0988,7.4152e-05,8.93e-06,0.0,0 STARLINK-3554,1 51872U 22022W   23255.07933608  .00000893  00000-0  74152-4 0  9997,2 51872  53.2158 132.5210 0001229  87.0145 273.0988 15.08848421 85799,6917.855,95.437,540.57,538.869,0.0
51872.0,STARLINK-3554,PAYLOAD,2023-09-12 16:12:43,15.08838265,0.0001752,53.2164,129.8447,94.4167,265.7025,2.7156e-05,1.44e-06,0.0,0 STARLINK-3554,1 51872U 22022W   23255.67550542  .00000144  00000-0  27156-4 0  9996,2 51872  53.2164 129.8447 0001752  94.4167 265.7025 15.08838265 85889,6917.886,95.438,540.963,538.539,0.0
51872.0,STARLINK-3554,PAYLOAD,2023-09-12 20:58:52,15.08837563,0.0001339,53.2156,128.9511,105.2496,254.8645,0.00011888,1.604e-05,0.0,0 STARLINK-3554,1 51872U 22022W   23255.87422148  .00001604  00000-0  11888-3 0  9994,2 51872  53.2156 128.9511 0001339 105.2496 254.8645 15.08837563 85910,6917.888,95.438,540.679,538.827,0.0
51872.0,STARLINK-3554,PAYLOAD,2023-09-12 22:34:15,15.08844773,0.0001308,53.2153,128.656,97.0941,263.02,8.6087e-05,1.083e-05,0.0,0 STARLINK-3554,1 51872U 22022W   23255.94045951  .00001083  00000-0  86087-4 0  9990,2 51872  53.2153 128.6560 0001308  97.0941 263.0200 15.08844773 85928,6917.866,95.437,540.636,538.826,0.0
51872.0,STARLINK-3554,PAYLOAD,2023-09-13 22:25:02,15.08850332,0.000134,53.2163,124.1968,98.4534,261.661,4.3317e-05,4.02e-06,0.0,0 STARLINK-3554,1 51872U 22022W   23256.93405526  .00000402  00000-0  43317-4 0  9991,2 51872  53.2163 124.1968 0001340  98.4534 261.6610 15.08850332 86075,6917.849,95.437,540.641,538.787,0.0
51872.0,STARLINK-3554,PAYLOAD,2023-09-14 01:35:48,15.08852258,0.0001316,53.2163,123.601,95.498,264.6162,6.3576e-05,7.24e-06,0.0,0 STARLINK-3554,1 51872U 22022W   23257.06653276  .00000724  00000-0  63576-4 0  9999,2 51872  53.2163 123.6010 0001316  95.4980 264.6162 15.08852258 86098,6917.843,95.437,540.618,538.798,0.0
51872.0,STARLINK-3554,PAYLOAD,2023-09-14 20:40:27,15.08829837,0.0001446,53.2169,120.0311,99.9181,260.1974,-6.6207e-05,-1.341e-05,0.0,0 STARLINK-3554,1 51872U 22022W   23257.86143332 -.00001341  00000-0 -66207-4 0  9996,2 51872  53.2169 120.0311 0001446  99.9181 260.1974 15.08829837 86218,6917.911,95.438,540.777,538.776,0.0
51872.0,STARLINK-3554,PAYLOAD,2023-09-14 23:51:14,15.08830127,0.0001308,53.2168,119.4373,95.5223,264.5918,-5.1804e-05,-1.112e-05,0.0,0 STARLINK-3554,1 51872U 22022W   23257.99391385 -.00001112  00000-0 -51804-4 0  9996,2 51872  53.2168 119.4373 0001308  95.5223 264.5918 15.08830127 86235,6917.911,95.438,540.68,538.871,0.0
51872.0,STARLINK-3554,PAYLOAD,2023-09-15 22:06:36,15.08850631,0.0001271,53.2164,115.2735,88.0805,272.0332,6.8616e-05,8.05e-06,0.0,0 STARLINK-3554,1 51872U 22022W   23258.92125991  .00000805  00000-0  68616-4 0  9993,2 51872  53.2164 115.2735 0001271  88.0805 272.0332 15.08850631 86370,6917.848,95.437,540.592,538.834,0.0
51872.0,STARLINK-3554,PAYLOAD,2023-09-16 14:00:29,15.08832033,0.0001661,53.2173,112.3018,71.109,289.0082,0.00014829,2.072e-05,0.0,0 STARLINK-3554,1 51872U 22022W   23259.58367269  .00002072  00000-0  14829-3 0  9996,2 51872  53.2173 112.3018 0001661  71.1090 289.0082 15.08832033 86471,6917.905,95.438,540.919,538.621,0.0
51872.0,STARLINK-3554,PAYLOAD,2023-09-16 23:32:48,15.0883546,0.0001446,53.2163,110.5167,78.3371,281.7783,0.00014729,2.057e-05,0.0,0 STARLINK-3554,1 51872U 22022W   23259.98111117  .00002057  00000-0  14729-3 0  9991,2 51872  53.2163 110.5167 0001446  78.3371 281.7783 15.08835460 86538,6917.894,95.438,540.76,538.759,0.0
51872.0,STARLINK-3554,PAYLOAD,2023-09-17 18:37:25,15.0885199,0.0001441,53.2168,106.948,75.8934,284.2218,-1.7915e-05,-5.73e-06,0.0,0 STARLINK-3554,1 51872U 22022W   23260.77598579 -.00000573  00000-0 -17915-4 0  9995,2 51872  53.2168 106.9480 0001441  75.8934 284.2218 15.08851990 86652,6917.844,95.437,540.706,538.712,0.0
51872.0,STARLINK-3554,PAYLOAD,2023-09-17 23:23:34,15.08853388,0.0001424,53.217,106.0547,86.9801,273.1354,4.7959e-05,4.76e-06,0.0,0 STARLINK-3554,1 51872U 22022W   23260.97470166  .00000476  00000-0  47959-4 0  9999,2 51872  53.2170 106.0547 0001424  86.9801 273.1354 15.08853388 86681,6917.839,95.437,540.69,538.719,0.0
51872.0,STARLINK-3554,PAYLOAD,2023-09-18 16:52:49,15.08841754,0.0001378,53.2156,102.7835,81.7726,278.3423,3.3346e-05,2.43e-06,0.0,0 STARLINK-3554,1 51872U 22022W   23261.70334844  .00000243  00000-0  33346-4 0  9990,2 51872  53.2156 102.7835 0001378  81.7726 278.3423 15.08841754 86795,6917.875,95.437,540.693,538.787,0.0
51872.0,STARLINK-3554,PAYLOAD,2023-09-18 20:03:35,15.08845156,0.0001423,53.217,102.1872,89.8774,270.2382,2.7532e-05,1.5e-06,0.0,0 STARLINK-3554,1 51872U 22022W   23261.83582597  .00000150  00000-0  27532-4 0  9991,2 51872  53.2170 102.1872 0001423  89.8774 270.2382 15.08845156 86817,6917.865,95.437,540.714,538.745,0.0
51872.0,STARLINK-3554,PAYLOAD,2023-09-19 18:18:58,15.08854569,0.0001382,53.2167,98.0251,87.375,272.7401,-2.4817e-05,-6.83e-06,0.0,0 STARLINK-3554,1 51872U 22022W   23262.76317982 -.00000683  00000-0 -24817-4 0  9994,2 51872  53.2167  98.0251 0001382  87.3750 272.7401 15.08854569 86950,6917.836,95.437,540.657,538.745,0.0
51872.0,STARLINK-3554,PAYLOAD,2023-09-20 11:48:14,15.08831331,0.0001413,53.2173,94.7554,91.8569,268.2585,1.5732e-05,-3.8e-07,0.0,0 STARLINK-3554,1 51872U 22022W   23263.49183441 -.00000038  00000-0  15732-4 0  9995,2 51872  53.2173  94.7554 0001413  91.8569 268.2585 15.08831331 87067,6917.907,95.438,540.749,538.794,0.0
51872.0,STARLINK-3554,PAYLOAD,2023-09-20 19:45:10,15.0882873,0.0001311,53.2169,93.2682,85.2014,274.9128,-4.701e-05,-1.036e-05,0.0,0 STARLINK-3554,1 51872U 22022W   23263.82303997 -.00001036  00000-0 -47010-4 0  9996,2 51872  53.2169  93.2682 0001311  85.2014 274.9128 15.08828730 87119,6917.915,95.438,540.687,538.873,0.0
51872.0,STARLINK-3554,PAYLOAD,2023-09-21 11:39:01,15.08834723,0.0001298,53.2169,90.2939,91.0559,269.0582,-1.7598e-05,-5.68e-06,0.0,0 STARLINK-3554,1 51872U 22022W   23264.48543919 -.00000568  00000-0 -17598-4 0  9996,2 51872  53.2169  90.2939 0001298  91.0559 269.0582 15.08834723 87213,6917.897,95.438,540.659,538.864,0.0
51872.0,STARLINK-3554,PAYLOAD,2023-09-21 18:00:33,15.08850617,0.0003409,53.2183,89.1078,141.3663,218.7574,9.954e-05,1.296e-05,0.0,0 STARLINK-3554,1 51872U 22022W   23264.75038355  .00001296  00000-0  99540-4 0  9993,2 51872  53.2183  89.1078 0003409 141.3663 218.7574 15.08850617 87257,6917.848,95.437,542.071,537.355,0.0
51872.0,STARLINK-3554,PAYLOAD,2023-09-22 05:08:17,15.08818555,0.0001565,53.218,87.0259,114.4334,245.6822,-0.00019189,-3.339e-05,0.0,0 STARLINK-3554,1 51872U 22022W   23265.21409325 -.00003339  00000-0 -19189-3 0  9996,2 51872  53.2180  87.0259 0001565 114.4334 245.6822 15.08818555 87327,6917.946,95.439,540.894,538.728,0.0
51872.0,STARLINK-3554,PAYLOAD,2023-09-22 17:51:21,15.08829732,0.0001427,53.2173,84.6457,95.9951,264.1203,0.0001766,2.523e-05,0.0,0 STARLINK-3554,1 51872U 22022W   23265.74400136  .00002523  00000-0  17660-3 0  9999,2 51872  53.2173  84.6457 0001427  95.9951 264.1203 15.08829732 87404,6917.912,95.438,540.764,538.79,0.0
